OBJECT_NAME,OBJECT_ID,EPOCH,MEAN_MOTION,ECCENTRICITY,INCLINATION,RA_OF_ASC_NODE,ARG_OF_PERICENTER,MEAN_ANOMALY,EPHEMERIS_TYPE,CLASSIFICATION_TYPE,NORAD_CAT_ID,ELEMENT_SET_NO,REV_AT_EPOCH,BSTAR,MEAN_MOTION_DOT,MEAN_MOTION_DDOT
IRIDIUM 154,2018-061F,2026-07-04T01:05:58.375392,14.34218052,.00022592,86.3949,49.7566,89.4454,270.7001,0,U,43574,999,41582,.6428208E-5,.38E-6,0
IRIDIUM 163,2018-061G,2026-07-04T00:38:34.442592,14.34217852,.00021706,86.3946,49.6792,84.6030,275.5413,0,U,43575,999,41579,.3857552E-5,.31E-6,0
IRIDIUM 156,2018-061H,2026-07-04T01:42:30.387456,14.34217566,.00020284,86.3944,49.6680,88.2359,271.9070,0,U,43576,999,41579,.50484278E-4,.161E-5,0
IRIDIUM 164,2018-061J,2026-07-03T21:54:10.476000,14.34217761,.00022532,86.3946,49.7748,89.6218,270.5236,0,U,43577,999,41581,.29615E-5,.28E-6,0
IRIDIUM 159,2018-061K,2026-07-04T00:29:26.458368,14.34218010,.00022167,86.3944,49.6662,84.4412,275.7036,0,U,43578,999,41579,.12765764E-4,.56E-6,0
IRIDIUM 180,2019-002A,2026-07-03T22:48:14.888448,14.34218094,.00022044,86.3981,346.5891,90.2305,269.9144,0,U,43922,999,39139,.70977577E-4,.219E-5,0
IRIDIUM 176,2019-002B,2026-07-04T03:37:23.346624,14.72237889,.00023665,86.6101,346.4461,88.2178,271.9310,0,U,43923,999,40174,.14274041E-3,.924E-5,0
IRIDIUM 168,2019-002C,2026-07-04T03:40:30.621216,14.34217533,.00022094,86.3983,346.5819,90.2374,269.9075,0,U,43924,999,39140,.4984186E-5,.34E-6,0
IRIDIUM 173,2019-002D,2026-07-04T05:02:42.897408,14.34218165,.00021563,86.3981,346.4463,89.6559,270.4883,0,U,43925,999,39139,.23340849E-4,.85E-6,0
IRIDIUM 169,2019-002E,2026-07-04T00:21:51.213312,14.38611827,.00016444,86.4218,18.1560,91.4305,268.7082,0,U,43926,999,39264,.10238051E-3,.333E-5,0
IRIDIUM 172,2019-002F,2026-07-04T04:53:34.901088,14.34218221,.00022138,86.3980,346.4569,89.3258,270.8191,0,U,43927,999,39140,.36978606E-4,.123E-5,0
IRIDIUM 175,2019-002G,2026-07-04T06:11:26.098080,14.43622605,.00045106,86.4518,283.3855,137.4528,222.7023,0,U,43928,999,40144,.1085962E-3,.388E-5,0
IRIDIUM 171,2019-002H,2026-07-04T04:26:10.893984,14.34218224,.00021634,86.3990,346.7728,94.6166,265.5277,0,U,43929,999,39139,.25246462E-4,.9E-6,0
IRIDIUM 170,2019-002J,2026-07-03T22:52:39.399456,14.72238045,.00023973,86.6100,346.5310,84.6982,275.4509,0,U,43930,999,40172,.14155357E-3,.917E-5,0
IRIDIUM 167,2019-002K,2026-07-04T04:17:02.874336,14.34217934,.00020917,86.3980,346.4899,98.7962,261.3471,0,U,43931,999,39139,.8056908E-5,.42E-6,0
IRIDIUM 181,2023-068S,2026-07-04T00:32:51.979776,14.43307743,.00025135,86.4497,49.7519,86.5628,273.5860,0,U,56726,999,16486,.95845083E-4,.343E-5,0
IRIDIUM 177,2023-068T,2026-07-03T19:38:28.149504,14.80013875,.00021307,86.1981,320.8941,92.1034,268.0431,0,U,56727,999,16882,.15499291E-3,.1198E-4,0
IRIDIUM 174,2023-068U,2026-07-03T11:09:42.814368,14.72245198,.0002207,86.6108,346.8842,80.3504,279.7962,0,U,56728,999,16841,.14252103E-3,.923E-5,0
IRIDIUM 178,2023-068V,2026-07-04T00:14:39.636672,14.80019325,.00023468,86.6532,18.3282,86.1707,273.9782,0,U,56729,999,16885,.15562241E-3,.1203E-4,0
IRIDIUM 179,2023-068W,2026-07-04T00:07:00.880320,14.80022952,.00022527,86.6766,27.3603,89.2951,270.8529,0,U,56730,999,16885,.14834854E-3,.1148E-4,0
