IRIDIUM 154             
1 43574U 18061F   26185.04581453  .00000038  00000+0  64282-5 0  9998
2 43574  86.3949  49.7566 0002259  89.4454 270.7001 14.34218052415820
IRIDIUM 163             
1 43575U 18061G   26185.02678753  .00000031  00000+0  38576-5 0  9997
2 43575  86.3946  49.6792 0002170  84.6030 275.5413 14.34217852415790
IRIDIUM 156             
1 43576U 18061H   26185.07118504  .00000161  00000+0  50484-4 0  9991
2 43576  86.3944  49.6680 0002028  88.2359 271.9070 14.34217566415792
IRIDIUM 164             
1 43577U 18061J   26184.91262125  .00000028  00000+0  29615-5 0  9998
2 43577  86.3946  49.7748 0002253  89.6218 270.5236 14.34217761415819
IRIDIUM 159             
1 43578U 18061K   26185.02044512  .00000056  00000+0  12766-4 0  9999
2 43578  86.3944  49.6662 0002216  84.4412 275.7036 14.34218010415790
IRIDIUM 180             
1 43922U 19002A   26184.95017232  .00000219  00000+0  70978-4 0  9998
2 43922  86.3981 346.5891 0002204  90.2305 269.9144 14.34218094391396
IRIDIUM 176             
1 43923U 19002B   26185.15096466  .00000924  00000+0  14274-3 0  9997
2 43923  86.6101 346.4461 0002366  88.2178 271.9310 14.72237889401744
IRIDIUM 168             
1 43924U 19002C   26185.15313219  .00000034  00000+0  49842-5 0  9999
2 43924  86.3983 346.5819 0002209  90.2374 269.9075 14.34217533391403
IRIDIUM 173             
1 43925U 19002D   26185.21021872  .00000085  00000+0  23341-4 0  9999
2 43925  86.3981 346.4463 0002156  89.6559 270.4883 14.34218165391398
IRIDIUM 169             
1 43926U 19002E   26185.01517608  .00000333  00000+0  10238-3 0  9991
2 43926  86.4218  18.1560 0001644  91.4305 268.7082 14.38611827392641
IRIDIUM 172             
1 43927U 19002F   26185.20387617  .00000123  00000+0  36979-4 0  9996
2 43927  86.3980 346.4569 0002213  89.3258 270.8191 14.34218221391404
IRIDIUM 175             
1 43928U 19002G   26185.25794095  .00000388  00000+0  10860-3 0  9997
2 43928  86.4518 283.3855 0004510 137.4528 222.7023 14.43622605401448
IRIDIUM 171             
1 43929U 19002H   26185.18484831  .00000090  00000+0  25246-4 0  9999
2 43929  86.3990 346.7728 0002163  94.6166 265.5277 14.34218224391395
IRIDIUM 170             
1 43930U 19002J   26184.95323379  .00000917  00000+0  14155-3 0  9998
2 43930  86.6100 346.5310 0002397  84.6982 275.4509 14.72238045401724
IRIDIUM 167             
1 43931U 19002K   26185.17850549  .00000042  00000+0  80569-5 0  9991
2 43931  86.3980 346.4899 0002091  98.7962 261.3471 14.34217934391399
IRIDIUM 181             
1 56726U 23068S   26185.02282384  .00000343  00000+0  95845-4 0  9990
2 56726  86.4497  49.7519 0002513  86.5628 273.5860 14.43307743164869
IRIDIUM 177             
1 56727U 23068T   26184.81838136  .00001198  00000+0  15499-3 0  9994
2 56727  86.1981 320.8941 0002130  92.1034 268.0431 14.80013875168820
IRIDIUM 174             
1 56728U 23068U   26184.46507887  .00000923  00000+0  14252-3 0  9993
2 56728  86.6108 346.8842 0002207  80.3504 279.7962 14.72245198168410
IRIDIUM 178             
1 56729U 23068V   26185.01018098  .00001203  00000+0  15562-3 0  9994
2 56729  86.6532  18.3282 0002346  86.1707 273.9782 14.80019325168858
IRIDIUM 179             
1 56730U 23068W   26185.00487130  .00001148  00000+0  14835-3 0  9992
2 56730  86.6766  27.3603 0002252  89.2951 270.8529 14.80022952168852
